[
  {
    "name": "ONEWEB-0053",
    "noradId": "45157",
    "line1": "1 45157U 20008AC  26192.55801769  .00000263  00000+0  71611-3 0  9992",
    "line2": "2 45157  87.8812  31.4266 0001554  73.5914 286.5384 13.10369256311102"
  },
  {
    "name": "ONEWEB-0054",
    "noradId": "45158",
    "line1": "1 45158U 20008AD  26192.59366413 -.00000498  00000+0 -14626-2 0  9993",
    "line2": "2 45158  87.8823  31.4046 0001748  86.8068 273.3260 13.10377134311227"
  },
  {
    "name": "ONEWEB-0056",
    "noradId": "45159",
    "line1": "1 45159U 20008AE  26192.64101795 -.00000114  00000+0 -36380-3 0  9997",
    "line2": "2 45159  87.8814  31.3876 0001685  71.3766 288.7544 13.10369046311387"
  },
  {
    "name": "ONEWEB-0057",
    "noradId": "45160",
    "line1": "1 45160U 20008AF  26192.58190056 -.00000611  00000+0 -17870-2 0  9994",
    "line2": "2 45160  87.8821  31.4124 0001632  70.1536 289.9768 13.10372527311545"
  },
  {
    "name": "ONEWEB-0058",
    "noradId": "45161",
    "line1": "1 45161U 20008AG  26192.56869890  .00004546  00000+0  12985-1 0  9992",
    "line2": "2 45161  87.8794  31.4158 0002104  97.0157 263.1209 13.10346906311618"
  },
  {
    "name": "ONEWEB-0059",
    "noradId": "45162",
    "line1": "1 45162U 20008AH  26192.56496149 -.00000104  00000+0 -33481-3 0  9990",
    "line2": "2 45162  87.8813  31.4194 0001549  85.6832 274.4473 13.10367595311510"
  },
  {
    "name": "ONEWEB-0062",
    "noradId": "45163",
    "line1": "1 45163U 20008AJ  26192.58841711 -.00000630  00000+0 -18410-2 0  9990",
    "line2": "2 45163  87.8826  31.4044 0001974  94.3804 265.7549 13.10374645311383"
  },
  {
    "name": "ONEWEB-0065",
    "noradId": "45164",
    "line1": "1 45164U 20008AK  26192.54601476  .00000704  00000+0  19799-2 0  9990",
    "line2": "2 45164  87.8811  31.4182 0001855  78.5908 281.5428 13.10374552311073"
  },
  {
    "name": "ONEWEB-0066",
    "noradId": "45424",
    "line1": "1 45424U 20020A   26192.56165901  .00000206  00000+0  54443-3 0  9996",
    "line2": "2 45424  87.8894  16.2188 0001920  98.3222 261.8124 13.11422641305871"
  },
  {
    "name": "ONEWEB-0067",
    "noradId": "45425",
    "line1": "1 45425U 20020B   26192.59939490 -.00000163  00000+0 -49468-3 0  9997",
    "line2": "2 45425  87.8902  16.1360 0001760  84.5699 275.5630 13.11423295305937"
  },
  {
    "name": "ONEWEB-0080",
    "noradId": "45426",
    "line1": "1 45426U 20020C   26192.59910772 -.00000091  00000+0 -29267-3 0  9995",
    "line2": "2 45426  87.8893  16.2087 0002024  97.6534 262.4824 13.11414512305900"
  },
  {
    "name": "ONEWEB-0090",
    "noradId": "45427",
    "line1": "1 45427U 20020D   26192.55162750 -.00000244  00000+0 -72526-3 0  9993",
    "line2": "2 45427  87.8898  16.2225 0001878  91.4136 268.7207 13.11418580305864"
  },
  {
    "name": "ONEWEB-0061",
    "noradId": "45428",
    "line1": "1 45428U 20020E   26192.58357255  .00000577  00000+0  15919-2 0  9992",
    "line2": "2 45428  87.8883  16.2002 0001820  89.3795 270.7542 13.11415885305822"
  },
  {
    "name": "ONEWEB-0081",
    "noradId": "45429",
    "line1": "1 45429U 20020F   26192.56506035  .00000315  00000+0  85356-3 0  9996",
    "line2": "2 45429  87.8885  16.2128 0001632  87.4103 272.7212 13.11417932305930"
  },
  {
    "name": "ONEWEB-0069",
    "noradId": "45430",
    "line1": "1 45430U 20020G   26192.56689660  .00000402  00000+0  10984-2 0  9995",
    "line2": "2 45430  87.8887  16.2157 0001628  90.8310 269.3004 13.11420450305861"
  },
  {
    "name": "ONEWEB-0031",
    "noradId": "45431",
    "line1": "1 45431U 20020H   26192.52607385 -.00000187  00000+0 -56395-3 0  9995",
    "line2": "2 45431  87.8875  16.2266 0001916  95.1080 265.0267 13.11415963305847"
  },
  {
    "name": "ONEWEB-0027",
    "noradId": "45432",
    "line1": "1 45432U 20020J   26192.48466578 -.00003779  00000+0 -97679-2 0  9997",
    "line2": "2 45432  87.9049   1.0231 0002403  95.6308 264.5098 13.17661762309550"
  },
  {
    "name": "ONEWEB-0064",
    "noradId": "45433",
    "line1": "1 45433U 20020K   26192.52435829 -.00000324  00000+0 -94980-3 0  9994",
    "line2": "2 45433  87.8871  16.2193 0002030  93.2027 266.9333 13.11414257305874"
  },
  {
    "name": "ONEWEB-0018",
    "noradId": "45434",
    "line1": "1 45434U 20020L   26192.55643379 -.00000025  00000+0 -10751-3 0  9991",
    "line2": "2 45434  87.8891  16.2147 0001572 100.6115 259.5190 13.11418378305829"
  },
  {
    "name": "ONEWEB-0083",
    "noradId": "45435",
    "line1": "1 45435U 20020M   26192.54653820 -.00000368  00000+0 -10731-2 0  9990",
    "line2": "2 45435  87.8895  16.2110 0001875  92.9888 267.1455 13.11418440305863"
  },
  {
    "name": "ONEWEB-0095",
    "noradId": "45436",
    "line1": "1 45436U 20020N   26192.53805645 -.00000498  00000+0 -14414-2 0  9990",
    "line2": "2 45436  87.8887  16.2210 0002405  78.2345 281.9053 13.11416154305869"
  },
  {
    "name": "ONEWEB-0092",
    "noradId": "45437",
    "line1": "1 45437U 20020P   26192.56859126  .00000406  00000+0  11089-2 0  9999",
    "line2": "2 45437  87.8892  16.2062 0001642  94.5662 265.5654 13.11415264305985"
  },
  {
    "name": "ONEWEB-0085",
    "noradId": "45438",
    "line1": "1 45438U 20020Q   26192.54626179 -.00000342  00000+0 -99949-3 0  9991",
    "line2": "2 45438  87.8881  16.2159 0001864  89.2522 270.8819 13.11418421305860"
  },
  {
    "name": "ONEWEB-0096",
    "noradId": "45439",
    "line1": "1 45439U 20020R   26192.54809202 -.00000336  00000+0 -98247-3 0  9995",
    "line2": "2 45439  87.8884  16.2124 0001967  87.5707 272.5647 13.11417741305857"
  },
  {
    "name": "ONEWEB-0037",
    "noradId": "45440",
    "line1": "1 45440U 20020S   26192.57437032  .00000545  00000+0  15032-2 0  9998",
    "line2": "2 45440  87.8898  16.1803 0001984  87.2335 272.9020 13.11416151305897"
  },
  {
    "name": "ONEWEB-0042",
    "noradId": "45441",
    "line1": "1 45441U 20020T   26192.53778568 -.00000440  00000+0 -12774-2 0  9993",
    "line2": "2 45441  87.8888  16.2113 0001767  87.2756 272.8574 13.11416942305855"
  },
  {
    "name": "ONEWEB-0098",
    "noradId": "45442",
    "line1": "1 45442U 20020U   26192.53367415 -.00000493  00000+0 -14258-2 0  9996",
    "line2": "2 45442  87.8885  16.2211 0001879  91.5821 268.5522 13.11414589305835"
  },
  {
    "name": "ONEWEB-0055",
    "noradId": "45443",
    "line1": "1 45443U 20020V   26192.58866312  .00000370  00000+0  10082-2 0  9995",
    "line2": "2 45443  87.8883  16.2088 0001892  92.8450 267.2895 13.11415192305811"
  },
  {
    "name": "ONEWEB-0093",
    "noradId": "45444",
    "line1": "1 45444U 20020W   26192.57417125  .00000657  00000+0  18305-2 0  9993",
    "line2": "2 45444  87.8884  16.2071 0001556  86.7091 273.4215 13.10893340305870"
  },
  {
    "name": "ONEWEB-0029",
    "noradId": "45445",
    "line1": "1 45445U 20020X   26192.59571790  .00000018  00000+0  13959-4 0  9998",
    "line2": "2 45445  87.8881  16.2081 0001596  89.9408 270.1903 13.11413675305856"
  }
]